SL-14 R/B               
1 16792U 86046B   26087.39722387  .00000551  00000+0  60590-4 0  9997
2 16792  82.4802  62.5007 0023509 162.4824 197.7209 14.85608172129185
SL-14 R/B               
1 16882U 86055B   26087.53697014  .00000462  00000+0  50446-4 0  9991
2 16882  82.5171 108.9546 0017301 269.8370 205.7521 14.85658913122165
AJISAI (EGS)            
1 16908U 86061A   26087.52695245 -.00000097  00000+0  17655-5 0  9991
2 16908  50.0112  35.4217 0011330 335.5723 181.7893 12.44515635470344
SL-14 R/B               
1 17567U 87024B   26087.42380328  .00000536  00000+0  58160-4 0  9997
2 17567  82.5252  75.1502 0017776 193.8891 166.1839 14.86149648 90913
COSMOS 1833             
1 17589U 87027A   26087.26562491 -.00000277  00000+0 -12215-3 0  9993
2 17589  70.9172 286.9747 0023300 187.2203 172.8586 14.13047748 12944
SL-16 R/B               
1 17590U 87027B   26087.53833148 -.00000049  00000+0 -47977-6 0  9998
2 17590  71.0014 236.7722 0002859  96.6500 263.4949 14.17165608 18012
SL-14 R/B               
1 17912U 87038B   26087.49575816  .00000506  00000+0  55737-4 0  9995
2 17912  82.4977 279.0865 0020746 101.6658 258.6887 14.85385929 82022
COSMOS 1844             
1 17973U 87041A   26087.49317799  .00000371  00000+0  21723-3 0  9997
2 17973  70.9014 354.5158 0031021 350.4320   9.6206 14.14556294  6241
SL-14 R/B               
1 18153U 87055B   26087.13253886  .00000411  00000+0  44589-4 0  9991
2 18153  82.5008 331.6523 0019567 315.9040  44.0615 14.85647373 72676
COSMOS 1867             
1 18187U 87060A   26087.51345519 -.00000013  00000+0  32609-4 0  9990
2 18187  65.0093 253.9865 0014808 279.7278  80.2134 14.31505871 22637
SL-14 R/B               
1 18749U 88001B   26087.53331961  .00000507  00000+0  55686-4 0  9995
2 18749  82.5162 177.6429 0018312 171.4255 188.7277 14.85548194 44828
COSMOS 1933             
1 18958U 88020A   26087.44407334  .00004713  00000+0  22929-3 0  9992
2 18958  82.5121 232.3517 0005169 126.0859 234.0854 15.18157158 53070
