CCSDS_OMM_VERS = 2.0
CREATION_DATE  = 
ORIGINATOR     = 

OBJECT_NAME    = SL-14 R/B
OBJECT_ID      = 1986-046B
CENTER_NAME    = EARTH
REF_FRAME      = TEME
TIME_SYSTEM    = UTC
MEAN_ELEMENT_THEORY = SGP/SGP4

EPOCH          = 2026-03-28T09:32:00.142368
MEAN_MOTION    = 14.85608172
ECCENTRICITY   = .0023509
INCLINATION    = 82.4802
RA_OF_ASC_NODE = 62.5007
ARG_OF_PERICENTER = 162.4824
MEAN_ANOMALY   = 197.7209

EPHEMERIS_TYPE = 0
CLASSIFICATION_TYPE = U
NORAD_CAT_ID   = 16792
ELEMENT_SET_NO = 999
REV_AT_EPOCH   = 12918
BSTAR          = .6059E-4
MEAN_MOTION_DOT = .551E-5
MEAN_MOTION_DDOT = 0

CCSDS_OMM_VERS = 2.0
CREATION_DATE  = 
ORIGINATOR     = 

OBJECT_NAME    = SL-14 R/B
OBJECT_ID      = 1986-055B
CENTER_NAME    = EARTH
REF_FRAME      = TEME
TIME_SYSTEM    = UTC
MEAN_ELEMENT_THEORY = SGP/SGP4

EPOCH          = 2026-03-28T12:53:14.220096
MEAN_MOTION    = 14.85658913
ECCENTRICITY   = .0017301
INCLINATION    = 82.5171
RA_OF_ASC_NODE = 108.9546
ARG_OF_PERICENTER = 269.8370
MEAN_ANOMALY   = 205.7521

EPHEMERIS_TYPE = 0
CLASSIFICATION_TYPE = U
NORAD_CAT_ID   = 16882
ELEMENT_SET_NO = 999
REV_AT_EPOCH   = 12216
BSTAR          = .50446E-4
MEAN_MOTION_DOT = .462E-5
MEAN_MOTION_DDOT = 0

CCSDS_OMM_VERS = 2.0
CREATION_DATE  = 
ORIGINATOR     = 

OBJECT_NAME    = AJISAI (EGS)
OBJECT_ID      = 1986-061A
CENTER_NAME    = EARTH
REF_FRAME      = TEME
TIME_SYSTEM    = UTC
MEAN_ELEMENT_THEORY = SGP/SGP4

EPOCH          = 2026-03-28T12:38:48.691680
MEAN_MOTION    = 12.44515635
ECCENTRICITY   = .001133
INCLINATION    = 50.0112
RA_OF_ASC_NODE = 35.4217
ARG_OF_PERICENTER = 335.5723
MEAN_ANOMALY   = 181.7893

EPHEMERIS_TYPE = 0
CLASSIFICATION_TYPE = U
NORAD_CAT_ID   = 16908
ELEMENT_SET_NO = 999
REV_AT_EPOCH   = 47034
BSTAR          = .17655E-5
MEAN_MOTION_DOT = -.97E-6
MEAN_MOTION_DDOT = 0

CCSDS_OMM_VERS = 2.0
CREATION_DATE  = 
ORIGINATOR     = 

OBJECT_NAME    = SL-14 R/B
OBJECT_ID      = 1987-024B
CENTER_NAME    = EARTH
REF_FRAME      = TEME
TIME_SYSTEM    = UTC
MEAN_ELEMENT_THEORY = SGP/SGP4

EPOCH          = 2026-03-28T10:10:16.603392
MEAN_MOTION    = 14.86149648
ECCENTRICITY   = .0017776
INCLINATION    = 82.5252
RA_OF_ASC_NODE = 75.1502
ARG_OF_PERICENTER = 193.8891
MEAN_ANOMALY   = 166.1839

EPHEMERIS_TYPE = 0
CLASSIFICATION_TYPE = U
NORAD_CAT_ID   = 17567
ELEMENT_SET_NO = 999
REV_AT_EPOCH   = 9091
BSTAR          = .5816E-4
MEAN_MOTION_DOT = .536E-5
MEAN_MOTION_DDOT = 0

CCSDS_OMM_VERS = 2.0
CREATION_DATE  = 
ORIGINATOR     = 

OBJECT_NAME    = COSMOS 1833
OBJECT_ID      = 1987-027A
CENTER_NAME    = EARTH
REF_FRAME      = TEME
TIME_SYSTEM    = UTC
MEAN_ELEMENT_THEORY = SGP/SGP4

EPOCH          = 2026-03-28T06:22:29.992224
MEAN_MOTION    = 14.13047748
ECCENTRICITY   = .00233
INCLINATION    = 70.9172
RA_OF_ASC_NODE = 286.9747
ARG_OF_PERICENTER = 187.2203
MEAN_ANOMALY   = 172.8586

EPHEMERIS_TYPE = 0
CLASSIFICATION_TYPE = U
NORAD_CAT_ID   = 17589
ELEMENT_SET_NO = 999
REV_AT_EPOCH   = 1294
BSTAR          = -.12215E-3
MEAN_MOTION_DOT = -.277E-5
MEAN_MOTION_DDOT = 0

CCSDS_OMM_VERS = 2.0
CREATION_DATE  = 
ORIGINATOR     = 

OBJECT_NAME    = SL-16 R/B
OBJECT_ID      = 1987-027B
CENTER_NAME    = EARTH
REF_FRAME      = TEME
TIME_SYSTEM    = UTC
MEAN_ELEMENT_THEORY = SGP/SGP4

EPOCH          = 2026-03-28T12:55:11.839872
MEAN_MOTION    = 14.17165608
ECCENTRICITY   = .0002859
INCLINATION    = 71.0014
RA_OF_ASC_NODE = 236.7722
ARG_OF_PERICENTER = 96.6500
MEAN_ANOMALY   = 263.4949

EPHEMERIS_TYPE = 0
CLASSIFICATION_TYPE = U
NORAD_CAT_ID   = 17590
ELEMENT_SET_NO = 999
REV_AT_EPOCH   = 1801
BSTAR          = -.47977E-6
MEAN_MOTION_DOT = -.49E-6
MEAN_MOTION_DDOT = 0

CCSDS_OMM_VERS = 2.0
CREATION_DATE  = 
ORIGINATOR     = 

OBJECT_NAME    = SL-14 R/B
OBJECT_ID      = 1987-038B
CENTER_NAME    = EARTH
REF_FRAME      = TEME
TIME_SYSTEM    = UTC
MEAN_ELEMENT_THEORY = SGP/SGP4

EPOCH          = 2026-03-28T11:53:53.505024
MEAN_MOTION    = 14.85385929
ECCENTRICITY   = .0020746
INCLINATION    = 82.4977
RA_OF_ASC_NODE = 279.0865
ARG_OF_PERICENTER = 101.6658
MEAN_ANOMALY   = 258.6887

EPHEMERIS_TYPE = 0
CLASSIFICATION_TYPE = U
NORAD_CAT_ID   = 17912
ELEMENT_SET_NO = 999
REV_AT_EPOCH   = 8202
BSTAR          = .55737E-4
MEAN_MOTION_DOT = .506E-5
MEAN_MOTION_DDOT = 0

CCSDS_OMM_VERS = 2.0
CREATION_DATE  = 
ORIGINATOR     = 

OBJECT_NAME    = COSMOS 1844
OBJECT_ID      = 1987-041A
CENTER_NAME    = EARTH
REF_FRAME      = TEME
TIME_SYSTEM    = UTC
MEAN_ELEMENT_THEORY = SGP/SGP4

EPOCH          = 2026-03-28T11:50:10.578336
MEAN_MOTION    = 14.14556294
ECCENTRICITY   = .0031021
INCLINATION    = 70.9014
RA_OF_ASC_NODE = 354.5158
ARG_OF_PERICENTER = 350.4320
MEAN_ANOMALY   = 9.6206

EPHEMERIS_TYPE = 0
CLASSIFICATION_TYPE = U
NORAD_CAT_ID   = 17973
ELEMENT_SET_NO = 999
REV_AT_EPOCH   = 624
BSTAR          = .21723E-3
MEAN_MOTION_DOT = .371E-5
MEAN_MOTION_DDOT = 0

CCSDS_OMM_VERS = 2.0
CREATION_DATE  = 
ORIGINATOR     = 

OBJECT_NAME    = SL-14 R/B
OBJECT_ID      = 1987-055B
CENTER_NAME    = EARTH
REF_FRAME      = TEME
TIME_SYSTEM    = UTC
MEAN_ELEMENT_THEORY = SGP/SGP4

EPOCH          = 2026-03-28T03:10:51.357504
MEAN_MOTION    = 14.85647373
ECCENTRICITY   = .00195675
INCLINATION    = 82.5008
RA_OF_ASC_NODE = 331.6523
ARG_OF_PERICENTER = 315.9040
MEAN_ANOMALY   = 44.0615

EPHEMERIS_TYPE = 0
CLASSIFICATION_TYPE = U
NORAD_CAT_ID   = 18153
ELEMENT_SET_NO = 999
REV_AT_EPOCH   = 7267
BSTAR          = .44588915E-4
MEAN_MOTION_DOT = .411E-5
MEAN_MOTION_DDOT = 0

CCSDS_OMM_VERS = 2.0
CREATION_DATE  = 
ORIGINATOR     = 

OBJECT_NAME    = COSMOS 1867
OBJECT_ID      = 1987-060A
CENTER_NAME    = EARTH
REF_FRAME      = TEME
TIME_SYSTEM    = UTC
MEAN_ELEMENT_THEORY = SGP/SGP4

EPOCH          = 2026-03-28T12:19:22.528416
MEAN_MOTION    = 14.31505871
ECCENTRICITY   = .0014808
INCLINATION    = 65.0093
RA_OF_ASC_NODE = 253.9865
ARG_OF_PERICENTER = 279.7278
MEAN_ANOMALY   = 80.2134

EPHEMERIS_TYPE = 0
CLASSIFICATION_TYPE = U
NORAD_CAT_ID   = 18187
ELEMENT_SET_NO = 999
REV_AT_EPOCH   = 2263
BSTAR          = .32609E-4
MEAN_MOTION_DOT = -.13E-6
MEAN_MOTION_DDOT = 0

CCSDS_OMM_VERS = 2.0
CREATION_DATE  = 
ORIGINATOR     = 

OBJECT_NAME    = SL-14 R/B
OBJECT_ID      = 1988-001B
CENTER_NAME    = EARTH
REF_FRAME      = TEME
TIME_SYSTEM    = UTC
MEAN_ELEMENT_THEORY = SGP/SGP4

EPOCH          = 2026-03-28T12:47:58.814304
MEAN_MOTION    = 14.85548194
ECCENTRICITY   = .0018312
INCLINATION    = 82.5162
RA_OF_ASC_NODE = 177.6429
ARG_OF_PERICENTER = 171.4255
MEAN_ANOMALY   = 188.7277

EPHEMERIS_TYPE = 0
CLASSIFICATION_TYPE = U
NORAD_CAT_ID   = 18749
ELEMENT_SET_NO = 999
REV_AT_EPOCH   = 4482
BSTAR          = .55686E-4
MEAN_MOTION_DOT = .507E-5
MEAN_MOTION_DDOT = 0

CCSDS_OMM_VERS = 2.0
CREATION_DATE  = 
ORIGINATOR     = 

OBJECT_NAME    = COSMOS 1933
OBJECT_ID      = 1988-020A
CENTER_NAME    = EARTH
REF_FRAME      = TEME
TIME_SYSTEM    = UTC
MEAN_ELEMENT_THEORY = SGP/SGP4

EPOCH          = 2026-03-28T10:39:27.936576
MEAN_MOTION    = 15.18157158
ECCENTRICITY   = .0005169
INCLINATION    = 82.5121
RA_OF_ASC_NODE = 232.3517
ARG_OF_PERICENTER = 126.0859
MEAN_ANOMALY   = 234.0854

EPHEMERIS_TYPE = 0
CLASSIFICATION_TYPE = U
NORAD_CAT_ID   = 18958
ELEMENT_SET_NO = 999
REV_AT_EPOCH   = 5307
BSTAR          = .22929E-3
MEAN_MOTION_DOT = .4713E-4
MEAN_MOTION_DDOT = 0

